[{"OBJECT_NAME":"STARLINK-5749","OBJECT_ID":"2023-020A","EPOCH":"2026-03-09T05:09:26.997120","MEAN_MOTION":15.02529474,"ECCENTRICITY":6.57e-5,"INCLINATION":43.0028,"RA_OF_ASC_NODE":7.5869,"ARG_OF_PERICENTER":252.1909,"MEAN_ANOMALY":107.8862,"EPHEMERIS_TYPE":0,"CLASSIFICATION_TYPE":"U","NORAD_CAT_ID":55569,"ELEMENT_SET_NO":999,"REV_AT_EPOCH":16991,"BSTAR":0.00017075481,"MEAN_MOTION_DOT":2.103e-5,"MEAN_MOTION_DDOT":0},{"OBJECT_NAME":"MEGSAT-1","OBJECT_ID":"2000-057B","EPOCH":"2026-03-09T22:47:17.292480","MEAN_MOTION":15.04862037,"ECCENTRICITY":0.0038022,"INCLINATION":64.552,"RA_OF_ASC_NODE":26.971,"ARG_OF_PERICENTER":294.4401,"MEAN_ANOMALY":65.2751,"EPHEMERIS_TYPE":0,"CLASSIFICATION_TYPE":"U","NORAD_CAT_ID":26546,"ELEMENT_SET_NO":999,"REV_AT_EPOCH":38272,"BSTAR":0.00040228449,"MEAN_MOTION_DOT":5.624e-5,"MEAN_MOTION_DDOT":0}]
